{"type": "FeatureCollection", "features": [ {"type": "Feature", "properties": {"norad_id": 37499, "name": "COSMOS 2251 DEB", "group": "cosmos-2251-debris", "lat": -27.693221327650168, "lon": -29.823499551742348, "alt_km": 781.5256347983131, "timestamp": "2025-12-03T15:48:03.463712+00:00", "meta": {"OBJECT_NAME": "COSMOS 2251 DEB", "OBJECT_ID": "1993-036BMC", "EPOCH": "2025-12-02T18:10:26.857920", "MEAN_MOTION": 14.34326576, "ECCENTRICITY": 0.00266176, "INCLINATION": 74.0374, "RA_OF_ASC_NODE": 340.4656, "ARG_OF_PERICENTER": 59.6085, "MEAN_ANOMALY": 300.7692, "EPHEMERIS_TYPE": 0, "CLASSIFICATION_TYPE": "U", "NORAD_CAT_ID": 37499, "ELEMENT_SET_NO": 999, "REV_AT_EPOCH": 85006, "BSTAR": 0.00020272386, "MEAN_MOTION_DOT": 5.46e-06, "MEAN_MOTION_DDOT": 0}, "tle": {"line1": "1 37499U 93036BMC 25336.75725530  .00000546  00000+0  20272-3 0  9996", "line2": "2 37499  74.0374 340.4656 0026617  59.6085 300.7692 14.34326576850069"}}, "geometry": {"type": "Point", "coordinates": [-29.823499551742348, -27.693221327650168]}}, {"type": "Feature", "properties": {"norad_id": 37528, "name": "COSMOS 2251 DEB", "group": "cosmos-2251-debris", "lat": -38.746321135019066, "lon": 125.92254507933424, "alt_km": 717.5008200323373, "timestamp": "2025-12-03T15:48:03.463721+00:00", "meta": {"OBJECT_NAME": "COSMOS 2251 DEB", "OBJECT_ID": "1993-036BNH", "EPOCH": "2025-12-03T04:24:00.466272", "MEAN_MOTION": 14.5046203, "ECCENTRICITY": 0.00209677, "INCLINATION": 74.0362, "RA_OF_ASC_NODE": 140.0948, "ARG_OF_PERICENTER": 289.16, "MEAN_ANOMALY": 70.7291, "EPHEMERIS_TYPE": 0, "CLASSIFICATION_TYPE": "U", "NORAD_CAT_ID": 37528, "ELEMENT_SET_NO": 999, "REV_AT_EPOCH": 85792, "BSTAR": 0.00063708103, "MEAN_MOTION_DOT": 2.471e-05, "MEAN_MOTION_DDOT": 0}, "tle": {"line1": "1 37528U 93036BNH 25337.18333873  .00002471  00000+0  63708-3 0  9992", "line2": "2 37528  74.0362 140.0948 0020967 289.1600  70.7291 14.50462030857927"}}, "geometry": {"type": "Point", "coordinates": [125.92254507933424, -38.746321135019066]}}, {"type": "Feature", "properties": {"norad_id": 37530, "name": "COSMOS 2251 DEB", "group": "cosmos-2251-debris", "lat": 29.24220567345926, "lon": -0.501635114094699, "alt_km": 758.4345282492432, "timestamp": "2025-12-03T15:48:03.463730+00:00", "meta": {"OBJECT_NAME": "COSMOS 2251 DEB", "OBJECT_ID": "1993-036BNK", "EPOCH": "2025-11-30T19:50:14.646624", "MEAN_MOTION": 14.34478642, "ECCENTRICITY": 0.00255427, "INCLINATION": 74.0356, "RA_OF_ASC_NODE": 355.4602, "ARG_OF_PERICENTER": 61.4891, "MEAN_ANOMALY": 111.2815, "EPHEMERIS_TYPE": 0, "CLASSIFICATION_TYPE": "U", "NORAD_CAT_ID": 37530, "ELEMENT_SET_NO": 999, "REV_AT_EPOCH": 85061, "BSTAR": 0.00021143929, "MEAN_MOTION_DOT": 5.72e-06, "MEAN_MOTION_DDOT": 0}, "tle": {"line1": "1 37530U 93036BNK 25334.82655841  .00000572  00000+0  21144-3 0  9993", "line2": "2 37530  74.0356 355.4602 0025542  61.4891 111.2815 14.34478642850619"}}, "geometry": {"type": "Point", "coordinates": [-0.501635114094699, 29.24220567345926]}}, {"type": "Feature", "properties": {"norad_id": 37532, "name": "COSMOS 2251 DEB", "group": "cosmos-2251-debris", "lat": -73.82220100895903, "lon": 152.2279177270814, "alt_km": 752.2704105545035, "timestamp": "2025-12-03T15:48:03.463739+00:00", "meta": {"OBJECT_NAME": "COSMOS 2251 DEB", "OBJECT_ID": "1993-036BNM", "EPOCH": "2025-12-02T23:37:55.500096", "MEAN_MOTION": 14.4238225, "ECCENTRICITY": 0.00156756, "INCLINATION": 74.0505, "RA_OF_ASC_NODE": 233.7976, "ARG_OF_PERICENTER": 335.7247, "MEAN_ANOMALY": 40.2834, "EPHEMERIS_TYPE": 0, "CLASSIFICATION_TYPE": "U", "NORAD_CAT_ID": 37532, "ELEMENT_SET_NO": 999, "REV_AT_EPOCH": 84775, "BSTAR": 0.00031017071, "MEAN_MOTION_DOT": 1e-05, "MEAN_MOTION_DDOT": 0}, "tle": {"line1": "1 37532U 93036BNM 25336.98467014  .00001000  00000+0  31017-3 0  9994", "line2": "2 37532  74.0505 233.7976 0015675 335.7247  40.2834 14.42382250847758"}}, "geometry": {"type": "Point", "coordinates": [152.2279177270814, -73.82220100895903]}}, {"type": "Feature", "properties": {"norad_id": 37533, "name": "COSMOS 2251 DEB", "group": "cosmos-2251-debris", "lat": -73.7025460530512, "lon": 130.15033965415358, "alt_km": 745.3847177296748, "timestamp": "2025-12-03T15:48:03.463748+00:00", "meta": {"OBJECT_NAME": "COSMOS 2251 DEB", "OBJECT_ID": "1993-036BNN", "EPOCH": "2025-12-02T21:29:58.799616", "MEAN_MOTION": 14.12086201, "ECCENTRICITY": 0.01585185, "INCLINATION": 74.0692, "RA_OF_ASC_NODE": 209.1556, "ARG_OF_PERICENTER": 268, "MEAN_ANOMALY": 90.298, "EPHEMERIS_TYPE": 0, "CLASSIFICATION_TYPE": "U", "NORAD_CAT_ID": 37533, "ELEMENT_SET_NO": 999, "REV_AT_EPOCH": 62782, "BSTAR": 0.0016783027, "MEAN_MOTION_DOT": 3.44e-05, "MEAN_MOTION_DDOT": 0}, "tle": {"line1": "1 37533U 93036BNN 25336.89581944  .00003440  00000+0  16783-2 0  9996", "line2": "2 37533  74.0692 209.1556 0158518 268.0000  90.2980 14.12086201627821"}}, "geometry": {"type": "Point", "coordinates": [130.15033965415358, -73.7025460530512]}}, {"type": "Feature", "properties": {"norad_id": 37535, "name": "COSMOS 2251 DEB", "group": "cosmos-2251-debris", "lat": 53.26474398725637, "lon": -111.77276869211879, "alt_km": 699.084344837348, "timestamp": "2025-12-03T15:48:03.463757+00:00", "meta": {"OBJECT_NAME": "COSMOS 2251 DEB", "OBJECT_ID": "1993-036BNQ", "EPOCH": "2025-12-02T18:23:39.005088", "MEAN_MOTION": 14.5832597, "ECCENTRICITY": 0.00282789, "INCLINATION": 74.0242, "RA_OF_ASC_NODE": 92.4973, "ARG_OF_PERICENTER": 232.6434, "MEAN_ANOMALY": 250.324, "EPHEMERIS_TYPE": 0, "CLASSIFICATION_TYPE": "U", "NORAD_CAT_ID": 37535, "ELEMENT_SET_NO": 999, "REV_AT_EPOCH": 85179, "BSTAR": 0.0012367848, "MEAN_MOTION_DOT": 5.729e-05, "MEAN_MOTION_DDOT": 0}, "tle": {"line1": "1 37535U 93036BNQ 25336.76642367  .00005729  00000+0  12368-2 0  9998", "line2": "2 37535  74.0242  92.4973 0028278 232.6434 250.3240 14.58325970851799"}}, "geometry": {"type": "Point", "coordinates": [-111.77276869211879, 53.26474398725637]}}, {"type": "Feature", "properties": {"norad_id": 37537, "name": "COSMOS 2251 DEB", "group": "cosmos-2251-debris", "lat": -72.31794083295563, "lon": -142.20627591809708, "alt_km": 803.6758432400202, "timestamp": "2025-12-03T15:48:03.463767+00:00", "meta": {"OBJECT_NAME": "COSMOS 2251 DEB", "OBJECT_ID": "1993-036BNS", "EPOCH": "2025-12-03T02:49:20.436096", "MEAN_MOTION": 14.37467313, "ECCENTRICITY": 0.00499683, "INCLINATION": 74.0121, "RA_OF_ASC_NODE": 282.86, "ARG_OF_PERICENTER": 65.6493, "MEAN_ANOMALY": 294.9866, "EPHEMERIS_TYPE": 0, "CLASSIFICATION_TYPE": "U", "NORAD_CAT_ID": 37537, "ELEMENT_SET_NO": 999, "REV_AT_EPOCH": 84895, "BSTAR": 0.00030991104, "MEAN_MOTION_DOT": 9.15e-06, "MEAN_MOTION_DDOT": 0}, "tle": {"line1": "1 37537U 93036BNS 25337.11759764  .00000915  00000+0  30991-3 0  9995", "line2": "2 37537  74.0121 282.8600 0049968  65.6493 294.9866 14.37467313848954"}}, "geometry": {"type": "Point", "coordinates": [-142.20627591809708, -72.31794083295563]}}, {"type": "Feature", "properties": {"norad_id": 37546, "name": "COSMOS 2251 DEB", "group": "cosmos-2251-debris", "lat": 38.465096183989054, "lon": 129.0711224402725, "alt_km": 627.5371039898782, "timestamp": "2025-12-03T15:48:03.463776+00:00", "meta": {"OBJECT_NAME": "COSMOS 2251 DEB", "OBJECT_ID": "1993-036BPB", "EPOCH": "2025-12-03T02:38:22.650432", "MEAN_MOTION": 14.79842657, "ECCENTRICITY": 0.00068685, "INCLINATION": 74.0213, "RA_OF_ASC_NODE": 116.9936, "ARG_OF_PERICENTER": 143.9263, "MEAN_ANOMALY": 216.2378, "EPHEMERIS_TYPE": 0, "CLASSIFICATION_TYPE": "U", "NORAD_CAT_ID": 37546, "ELEMENT_SET_NO": 999, "REV_AT_EPOCH": 65745, "BSTAR": 0.0040495807, "MEAN_MOTION_DOT": 0.00030644, "MEAN_MOTION_DDOT": 0}, "tle": {"line1": "1 37546U 93036BPB 25337.10998438  .00030644  00000+0  40496-2 0  9999", "line2": "2 37546  74.0213 116.9936 0006868 143.9263 216.2378 14.79842657657454"}}, "geometry": {"type": "Point", "coordinates": [129.0711224402725, 38.465096183989054]}}, {"type": "Feature", "properties": {"norad_id": 37959, "name": "COSMOS 2251 DEB", "group": "cosmos-2251-debris", "lat": -54.109969546387795, "lon": -82.40869092533288, "alt_km": 666.9422042860188, "timestamp": "2025-12-03T15:48:03.463785+00:00", "meta": {"OBJECT_NAME": "COSMOS 2251 DEB", "OBJECT_ID": "1993-036BPJ", "EPOCH": "2025-12-03T06:37:43.732704", "MEAN_MOTION": 14.58029421, "ECCENTRICITY": 0.00584572, "INCLINATION": 74.0113, "RA_OF_ASC_NODE": 74.9761, "ARG_OF_PERICENTER": 219.613, "MEAN_ANOMALY": 172.3716, "EPHEMERIS_TYPE": 0, "CLASSIFICATION_TYPE": "U", "NORAD_CAT_ID": 37959, "ELEMENT_SET_NO": 999, "REV_AT_EPOCH": 79989, "BSTAR": 0.0012227789, "MEAN_MOTION_DOT": 5.729e-05, "MEAN_MOTION_DDOT": 0}, "tle": {"line1": "1 37959U 93036BPJ 25337.27620061  .00005729  00000+0  12228-2 0  9997", "line2": "2 37959  74.0113  74.9761 0058457 219.6130 172.3716 14.58029421799891"}}, "geometry": {"type": "Point", "coordinates": [-82.40869092533288, -54.109969546387795]}}, {"type": "Feature", "properties": {"norad_id": 37960, "name": "COSMOS 2251 DEB", "group": "cosmos-2251-debris", "lat": -55.721961348774165, "lon": 178.01562306182444, "alt_km": 828.8810580153558, "timestamp": "2025-12-03T15:48:03.463794+00:00", "meta": {"OBJECT_NAME": "COSMOS 2251 DEB", "OBJECT_ID": "1993-036BPK", "EPOCH": "2025-12-03T00:44:10.802976", "MEAN_MOTION": 14.07807809, "ECCENTRICITY": 0.02496601, "INCLINATION": 74.0591, "RA_OF_ASC_NODE": 203.9073, "ARG_OF_PERICENTER": 224.9718, "MEAN_ANOMALY": 133.0963, "EPHEMERIS_TYPE": 0, "CLASSIFICATION_TYPE": "U", "NORAD_CAT_ID": 37960, "ELEMENT_SET_NO": 999, "REV_AT_EPOCH": 77269, "BSTAR": 0.0012185346, "MEAN_MOTION_DOT": 2.721e-05, "MEAN_MOTION_DDOT": 0}, "tle": {"line1": "1 37960U 93036BPK 25337.03068059  .00002721  00000+0  12185-2 0  9997", "line2": "2 37960  74.0591 203.9073 0249660 224.9718 133.0963 14.07807809772697"}}, "geometry": {"type": "Point", "coordinates": [178.01562306182444, -55.721961348774165]}}]}